NORAD_CAT_ID,OBJECT_NAME,OBJECT_TYPE,EPOCH,MEAN_MOTION,ECCENTRICITY,INCLINATION,RA_OF_ASC_NODE,ARG_OF_PERICENTER,MEAN_ANOMALY,BSTAR,MEAN_MOTION_DOT,MEAN_MOTION_DDOT,TLE_LINE0,TLE_LINE1,TLE_LINE2,SEMIMAJOR_AXIS,PERIOD,APOGEE,PERIGEE,DECAYED
51727.0,STARLINK-3532,PAYLOAD,2023-09-09 07:39:50,15.08841859,0.0001395,53.2176,104.9067,85.5728,274.5424,4.3955e-05,4.12e-06,0.0,0 STARLINK-3532,1 51727U 22016P   23252.31933861  .00000412  00000-0  43955-4 0  9998,2 51727  53.2176 104.9067 0001395  85.5728 274.5424 15.08841859 85682,6917.875,95.437,540.705,538.775,0.0
51727.0,STARLINK-3532,PAYLOAD,2023-09-09 20:22:55,15.08842079,0.0001372,53.2172,102.5267,90.932,269.1829,4.6708e-05,4.56e-06,0.0,0 STARLINK-3532,1 51727U 22016P   23252.84925819  .00000456  00000-0  46708-4 0  9997,2 51727  53.2172 102.5267 0001372  90.9320 269.1829 15.08842079 86828,6917.874,95.437,540.688,538.79,0.0
51727.0,STARLINK-3532,PAYLOAD,2023-09-10 23:24:29,15.08845095,0.0001352,53.2175,97.4707,99.0941,261.0204,-5.5785e-06,-3.77e-06,0.0,0 STARLINK-3532,1 51727U 22016P   23253.97533663 -.00000377  00000-0 -55785-5 0  9994,2 51727  53.2175  97.4707 0001352  99.0941 261.0204 15.08845095 86996,6917.865,95.437,540.665,538.795,0.0
51727.0,STARLINK-3532,PAYLOAD,2023-09-11 16:53:44,15.08837097,0.0001401,53.2178,94.1984,98.7302,261.3849,3.3563e-06,-2.35e-06,0.0,0 STARLINK-3532,1 51727U 22016P   23254.70398192 -.00000235  00000-0  33563-5 0  9994,2 51727  53.2178  94.1984 0001401  98.7302 261.3849 15.08837097 87107,6917.889,95.438,540.723,538.785,0.0
51727.0,STARLINK-3532,PAYLOAD,2023-09-12 13:33:44,15.0883593,0.0001392,53.2183,90.3345,91.2561,268.859,3.5143e-05,2.71e-06,0.0,0 STARLINK-3532,1 51727U 22016P   23255.56510345  .00000271  00000-0  35143-4 0  9999,2 51727  53.2183  90.3345 0001392  91.2561 268.8590 15.08835930 86171,6917.893,95.438,540.721,538.795,0.0
51727.0,STARLINK-3532,PAYLOAD,2023-09-12 18:19:54,15.08838874,0.0001446,53.2183,89.4421,97.9123,262.2034,5.4103e-05,5.73e-06,0.0,0 STARLINK-3532,1 51727U 22016P   23255.76382122  .00000573  00000-0  54103-4 0  9993,2 51727  53.2183  89.4421 0001446  97.9123 262.2034 15.08838874 87264,6917.884,95.438,540.749,538.749,0.0
51727.0,STARLINK-3532,PAYLOAD,2023-09-13 13:24:31,15.08844763,0.0001352,53.2179,85.874,85.4632,274.6514,0.00010537,1.39e-05,0.0,0 STARLINK-3532,1 51727U 22016P   23256.55869628  .00001390  00000-0  10537-3 0  9992,2 51727  53.2179  85.8740 0001352  85.4632 274.6514 15.08844763 86326,6917.866,95.437,540.666,538.796,0.0
51727.0,STARLINK-3532,PAYLOAD,2023-09-13 18:10:40,15.08847815,0.0001286,53.2179,84.982,94.4011,265.7128,0.00010249,1.344e-05,0.0,0 STARLINK-3532,1 51727U 22016P   23256.75741399  .00001344  00000-0  10249-3 0  9997,2 51727  53.2179  84.9820 0001286  94.4011 265.7128 15.08847815 87416,6917.857,95.437,540.611,538.832,0.0
51727.0,STARLINK-3532,PAYLOAD,2023-09-13 19:46:03,15.08849514,0.0001225,53.2176,84.6868,92.7767,267.3366,0.00012478,1.699e-05,0.0,0 STARLINK-3532,1 51727U 22016P   23256.82365233  .00001699  00000-0  12478-3 0  9993,2 51727  53.2176  84.6868 0001225  92.7767 267.3366 15.08849514 86367,6917.851,95.437,540.564,538.869,0.0
51727.0,STARLINK-3532,PAYLOAD,2023-09-14 19:36:52,15.08829905,0.0001219,53.218,80.2253,88.7692,271.344,-5.5818e-05,-1.176e-05,0.0,0 STARLINK-3532,1 51727U 22016P   23257.81727360 -.00001176  00000-0 -55818-4 0  9994,2 51727  53.2180  80.2253 0001219  88.7692 271.3440 15.08829905 87571,6917.911,95.438,540.62,538.933,0.0
51727.0,STARLINK-3532,PAYLOAD,2023-09-15 11:30:43,15.08835756,0.0001211,53.2181,77.2514,85.9123,274.2008,-1.3269e-05,-4.99e-06,0.0,0 STARLINK-3532,1 51727U 22016P   23258.47967188 -.00000499  00000-0 -13269-4 0  9992,2 51727  53.2181  77.2514 0001211  85.9123 274.2008 15.08835756 86615,6917.893,95.438,540.596,538.921,0.0
51727.0,STARLINK-3532,PAYLOAD,2023-09-15 17:52:15,15.08845379,0.000119,53.2179,76.0621,88.8569,271.256,3.7143e-05,3.03e-06,0.0,0 STARLINK-3532,1 51727U 22016P   23258.74462434  .00000303  00000-0  37143-4 0  9995,2 51727  53.2179  76.0621 0001190  88.8569 271.2560 15.08845379 87714,6917.864,95.437,540.552,538.906,0.0
51727.0,STARLINK-3532,PAYLOAD,2023-09-15 21:03:01,15.08851957,0.0001616,53.2182,75.4675,108.1529,251.964,8.1116e-06,-1.59e-06,0.0,0 STARLINK-3532,1 51727U 22016P   23258.87710021 -.00000159  00000-0  81116-5 0  9997,2 51727  53.2182  75.4675 0001616 108.1529 251.9640 15.08851957 87730,6917.844,95.437,540.827,538.591,0.0
51727.0,STARLINK-3532,PAYLOAD,2023-09-16 04:59:57,15.08847192,0.0001206,53.2179,73.9813,81.2994,278.8134,1.1296e-05,-1.08e-06,0.0,0 STARLINK-3532,1 51727U 22016P   23259.20830208 -.00000108  00000-0  11296-4 0  9990,2 51727  53.2179  73.9813 0001206  81.2994 278.8134 15.08847192 87782,6917.858,95.437,540.558,538.889,0.0
51727.0,STARLINK-3532,PAYLOAD,2023-09-16 17:43:02,15.08837849,0.0001115,53.2177,71.6022,73.388,286.7234,0.00016212,2.293e-05,0.0,0 STARLINK-3532,1 51727U 22016P   23259.73822711  .00002293  00000-0  16212-3 0  9996,2 51727  53.2177  71.6022 0001115  73.3880 286.7234 15.08837849 87868,6917.887,95.438,540.523,538.981,0.0
51727.0,STARLINK-3532,PAYLOAD,2023-09-16 19:18:25,15.08837987,0.0001166,53.2179,71.3045,75.3293,284.7828,0.0001719,2.449e-05,0.0,0 STARLINK-3532,1 51727U 22016P   23259.80446713  .00002449  00000-0  17190-3 0  9997,2 51727  53.2179  71.3045 0001166  75.3293 284.7828 15.08837987 86812,6917.887,95.438,540.558,538.945,0.0
51727.0,STARLINK-3532,PAYLOAD,2023-09-17 19:09:12,15.08849947,0.0001164,53.2177,66.8448,74.4638,285.6482,9.0263e-05,1.149e-05,0.0,0 STARLINK-3532,1 51727U 22016P   23260.79806278  .00001149  00000-0  90263-4 0  9992,2 51727  53.2177  66.8448 0001164  74.4638 285.6482 15.08849947 88027,6917.85,95.437,540.52,538.91,0.0
51727.0,STARLINK-3532,PAYLOAD,2023-09-18 14:13:50,15.08837977,0.0001128,53.2186,63.2762,83.4077,276.7044,1.5551e-05,-4e-07,0.0,0 STARLINK-3532,1 51727U 22016P   23261.59295011 -.00000040  00000-0  15551-4 0  9995,2 51727  53.2186  63.2762 0001128  83.4077 276.7044 15.08837977 87084,6917.887,95.438,540.532,538.971,0.0
51727.0,STARLINK-3532,PAYLOAD,2023-09-18 17:24:36,15.08841535,0.0001223,53.2192,62.6798,91.7146,268.3986,3.8383e-05,3.23e-06,0.0,0 STARLINK-3532,1 51727U 22016P   23261.72542680  .00000323  00000-0  38383-4 0  9998,2 51727  53.2192  62.6798 0001223  91.7146 268.3986 15.08841535 88165,6917.876,95.437,540.587,538.895,0.0
51727.0,STARLINK-3532,PAYLOAD,2023-09-19 17:15:23,15.08850826,0.0001434,53.2197,58.2198,94.7931,265.3225,7.588e-05,9.2e-06,0.0,0 STARLINK-3532,1 51727U 22016P   23262.71901874  .00000920  00000-0  75880-4 0  9998,2 51727  53.2197  58.2198 0001434  94.7931 265.3225 15.08850826 88317,6917.847,95.437,540.704,538.72,0.0
51727.0,STARLINK-3532,PAYLOAD,2023-09-20 10:44:39,15.08823956,0.0001228,53.2199,54.9496,97.7023,262.4109,-5.8976e-05,-1.226e-05,0.0,0 STARLINK-3532,1 51727U 22016P   23263.44768259 -.00001226  00000-0 -58976-4 0  9996,2 51727  53.2199  54.9496 0001228  97.7023 262.4109 15.08823956 88424,6917.929,95.439,540.644,538.945,0.0
51727.0,STARLINK-3532,PAYLOAD,2023-09-20 13:55:26,15.08823814,0.0001274,53.2197,54.3548,101.2636,258.85,-5.7225e-05,-1.198e-05,0.0,0 STARLINK-3532,1 51727U 22016P   23263.58016373 -.00001198  00000-0 -57225-4 0  9998,2 51727  53.2197  54.3548 0001274 101.2636 258.8500 15.08823814 87387,6917.93,95.439,540.676,538.914,0.0
51727.0,STARLINK-3532,PAYLOAD,2023-09-20 18:41:35,15.0882806,0.000138,53.2193,53.4616,103.1936,256.921,-4.4558e-05,-9.97e-06,0.0,0 STARLINK-3532,1 51727U 22016P   23263.77888227 -.00000997  00000-0 -44558-4 0  9995,2 51727  53.2193  53.4616 0001380 103.1936 256.9210 15.08828060 87410,6917.917,95.438,540.737,538.827,0.0
51727.0,STARLINK-3532,PAYLOAD,2023-09-21 10:35:26,15.08843109,0.000124,53.2192,50.4884,102.8932,257.2199,4.7349e-05,4.66e-06,0.0,0 STARLINK-3532,1 51727U 22016P   23264.44127392  .00000466  00000-0  47349-4 0  9999,2 51727  53.2192  50.4884 0001240 102.8932 257.2199 15.08843109 88579,6917.871,95.437,540.594,538.878,0.0
51727.0,STARLINK-3532,PAYLOAD,2023-09-21 13:46:12,15.08846985,0.0001252,53.2192,49.8941,101.0617,259.0516,8.5562e-05,1.074e-05,0.0,0 STARLINK-3532,1 51727U 22016P   23264.57375094  .00001074  00000-0  85562-4 0  9992,2 51727  53.2192  49.8941 0001252 101.0617 259.0516 15.08846985 87532,6917.859,95.437,540.59,538.858,0.0
51727.0,STARLINK-3532,PAYLOAD,2023-09-21 16:56:58,15.08848886,0.0001233,53.2183,49.301,101.7634,258.3497,0.00020114,2.915e-05,0.0,0 STARLINK-3532,1 51727U 22016P   23264.70623040  .00002915  00000-0  20114-3 0  9990,2 51727  53.2183  49.3010 0001233 101.7634 258.3497 15.08848886 87553,6917.853,95.437,540.571,538.865,0.0
51727.0,STARLINK-3532,PAYLOAD,2023-09-22 13:36:59,15.08843194,0.0001449,53.2199,45.4373,108.2514,251.8636,0.00011471,1.538e-05,0.0,0 STARLINK-3532,1 51727U 22016P   23265.56735464  .00001538  00000-0  11471-3 0  9995,2 51727  53.2199  45.4373 0001449 108.2514 251.8636 15.08843194 87681,6917.871,95.437,540.738,538.733,0.0
51727.0,STARLINK-3532,PAYLOAD,2023-09-22 16:47:45,15.08852782,0.0001474,53.2193,44.8416,104.2004,255.9152,1.6231e-05,-3e-07,0.0,0 STARLINK-3532,1 51727U 22016P   23265.69982899 -.00000030  00000-0  16231-4 0  9992,2 51727  53.2193  44.8416 0001474 104.2004 255.9152 15.08852782 88765,6917.841,95.437,540.726,538.687,0.0
51727.0,STARLINK-3532,PAYLOAD,2023-09-23 08:41:37,15.08842041,0.0001096,53.2182,41.8672,90.7264,269.3853,2.9735e-05,1.85e-06,0.0,0 STARLINK-3532,1 51727U 22016P   23266.36223458  .00000185  00000-0  29735-4 0  9999,2 51727  53.2182  41.8672 0001096  90.7264 269.3853 15.08842041 88866,6917.874,95.437,540.497,538.981,0.0
51727.0,STARLINK-3532,PAYLOAD,2023-09-23 13:27:46,15.08844372,0.0001112,53.2187,40.9754,121.5115,238.5986,5.111e-05,5.26e-06,0.0,0 STARLINK-3532,1 51727U 22016P   23266.56095177  .00000526  00000-0  51110-4 0  9997,2 51727  53.2187  40.9754 0001112 121.5115 238.5986 15.08844372 87839,6917.867,95.437,540.501,538.963,0.0
